IRIDIUM 136             
1 42962U 17061H   23267.47072877  .00000183  00000+0  58333-4 0  9997
2 42962  86.3914  81.7966 0002327  89.2136 270.9326 14.34218791311976
